satname,norad_id,inclination_deg,eccentricity,mean_motion_rev_per_day,perigee_km,apogee_km,l1,l2
STARLINK-1556,46033,53.0544,0.0001408,15.06403458,546.2258721018707,548.1760472713186,1 46033U 20055G   26058.78423431  .00001226  00000+0  10119-3 0  9996,2 46033  53.0544 171.0857 0001408  97.2050 262.9099 15.06403458307377
STARLINK-1557,46034,53.0565,0.0001547,15.06862542,544.7231637922496,546.8654281352201,1 46034U 20055H   26058.78744904  .00058886  00000+0  38904-2 0  9993,2 46034  53.0565 171.0666 0001547  88.0832 272.0334 15.06862542307376
STARLINK-1558,46035,53.0568,0.0001215,15.06402969,546.3610296516426,548.0438871400329,1 46035U 20055J   26058.59625366  .00000481  00000+0  51179-4 0  9992,2 46035  53.0568 171.9314 0001215  87.7823 272.3305 15.06402969307371
STARLINK-1560,46036,53.0517,0.0001332,15.063996,546.2903272897256,548.1352404721529,1 46036U 20055K   26058.58151266  .00000943  00000+0  82170-4 0  9993,2 46036  53.0517 171.9959 0001332  86.7860 273.3281 15.06399600307372
STARLINK-1567,46038,53.0546,0.0001274,15.06404921,546.3141883382696,548.0787633079099,1 46038U 20055M   26058.79160786  .00001132  00000+0  94845-4 0  9998,2 46038  53.0546 171.0541 0001274  86.4133 273.7002 15.06404921307399
STARLINK-1569,46039,53.0572,0.0001585,15.06379528,546.1766246889247,548.3719800717781,1 46039U 20055N   26058.66631260 -.00005039  00000+0 -31981-3 0  9998,2 46039  53.0572 171.6147 0001585  82.0417 278.0752 15.06379528307371
STARLINK-1582,46043,53.0555,0.0001438,15.0640289,546.2068366697395,548.1985643676098,1 46043U 20055S   26058.74000977 -.00001028  00000+0 -50133-4 0  9992,2 46043  53.0555 171.2840 0001438  94.6481 265.4673 15.06402890307382
STARLINK-1591,46045,53.0574,0.0001475,15.06802303,544.9575244421767,547.0001386124759,1 46045U 20055U   26058.83187289  .00081951  00000+0  53982-2 0  9990,2 46045  53.0574 170.8681 0001475 112.3960 247.7185 15.06802303307388
STARLINK-1524,46047,53.1555,0.0001252,15.29371223,476.8324159427366,478.5491152152381,1 46047U 20055W   26058.91668981 -.00028406  00000+0 -97533-3 0  9993,2 46047  53.1555 159.1754 0001252  89.0663 270.6675 15.29371223  5778
STARLINK-1527,46048,53.1558,0.0001423,15.29364761,476.73449040448395,478.68566448272577,1 46048U 20055X   26058.91668981 -.00021407  00000+0 -73141-3 0  9997,2 46048  53.1558 159.3017 0001423  81.8579 227.7032 15.29364761  5782
STARLINK-1540,46051,53.1563,0.0001162,15.29351196,476.9539631202206,478.5472714024718,1 46051U 20055AA  26058.91668981 -.00017920  00000+0 -61025-3 0  9994,2 46051  53.1563 159.1961 0001162  89.7888  98.4996 15.29351196  5834
STARLINK-1541,46052,53.1416,0.0001479,15.26712653,484.6323207468613,486.66262819441,1 46052U 20055AB  26058.91668981  .00039166  00000+0  14765-2 0  9997,2 46052  53.1416 159.2224 0001479 100.0647 154.8945 15.26712653  5822
STARLINK-1543,46053,53.1536,0.0001723,15.29297753,476.729043753734,479.0916376673431,1 46053U 20055AC  26058.91668981  .00028598  00000+0  10013-2 0  9997,2 46053  53.1536 159.2713 0001723  77.8341 129.7933 15.29297753  5823
STARLINK-1548,46054,53.1512,0.0001316,15.28519843,479.3337481519093,481.1388720071218,1 46054U 20055AD  26058.91668981  .00947553  00000+0  31143-1 0  9995,2 46054  53.1512 159.2699 0001316 114.1933  53.8206 15.28519843  5782
STARLINK-1554,46055,53.1408,0.0001588,15.26141581,486.269381750858,488.4498634781994,1 46055U 20055AE  26058.91668981  .00858138  00000+0  30539-1 0  9994,2 46055  53.1408 159.3764 0001588  91.1694  98.3494 15.26141581  5826
STARLINK-1564,46058,53.1519,0.000113,15.29231523,477.3335374633016,478.8830488995618,1 46058U 20055AH  26058.91668981  .00024755  00000+0  87063-3 0  9993,2 46058  53.1519 159.7434 0001130 105.9366  75.9607 15.29231523  5784
STARLINK-1570,46059,53.1548,0.000117,15.29379413,476.8641607493819,478.4684187191797,1 46059U 20055AJ  26058.91668981 -.00020810  00000+0 -71031-3 0  9992,2 46059  53.1548 159.2818 0001170  72.3970 308.9745 15.29379413  5839
STARLINK-1572,46060,53.1435,8.1e-05,15.26948231,484.38558256696433,485.497401282656,1 46060U 20055AK  26058.91668981  .00957496  00000+0  32974-1 0  9992,2 46060  53.1435 159.4154 0000810  91.5278 237.0793 15.26948231  5691
STARLINK-1573,46061,53.1584,0.0001219,15.30163029,474.4900233099588,476.16089745779936,1 46061U 20055AL  26058.91668981  .00026982  00000+0  92085-3 0  9991,2 46061  53.1584 159.2578 0001219  65.7898  29.8613 15.30163029  5787
STARLINK-1577,46063,53.1556,0.0001015,15.29359256,477.03065924646216,478.42239954292927,1 46063U 20055AN  26058.91668981 -.00022735  00000+0 -77785-3 0  9997,2 46063  53.1556 159.2000 0001015  91.2768 234.2972 15.29359256  5778
STARLINK-1583,46064,53.1565,9.64e-05,15.29363819,477.0519887182045,478.37379657750716,1 46064U 20055AP  26058.91668981 -.00016793  00000+0 -57079-3 0  9999,2 46064  53.1565 159.2173 0000964  96.4274  40.4291 15.29363819  5783
STARLINK-1525,46066,53.0532,0.0001323,15.06428752,546.2072266448749,548.0396505569288,1 46066U 20055AR  26058.62113719  .00010692  00000+0  73501-3 0  9991,2 46066  53.0532 141.8168 0001323  98.7571 261.3568 15.06428752307783
STARLINK-1536,46070,53.0555,0.0001465,15.0640969,546.167300430152,548.1964188560287,1 46070U 20055AV  26058.66536174  .00000116  00000+0  26672-4 0  9992,2 46070  53.0555 141.6204 0001465 102.9466 257.1687 15.06409690307808
STARLINK-1542,46073,53.0554,0.0001365,15.0639277,546.288403832732,548.1790300384546,1 46073U 20055AY  26058.65799157 -.00002900  00000+0 -17590-3 0  9999,2 46073  53.0554 141.6535 0001365  90.5658 269.5488 15.06392770307795
STARLINK-1549,46074,53.0572,0.0001394,15.06401571,546.2413501359451,548.1721359715084,1 46074U 20055AZ  26058.51055741  .00000391  00000+0  45155-4 0  9998,2 46074  53.0572 142.3181 0001394  90.6479 269.4669 15.06401571307762
STARLINK-1551,46075,53.0561,0.0001446,15.06398407,546.215034150684,548.2178463656073,1 46075U 20055BA  26058.60270910  .00000503  00000+0  52695-4 0  9998,2 46075  53.0561 141.8977 0001446  90.0516 270.0639 15.06398407307782
STARLINK-1552,46076,53.0551,0.0001268,15.06410258,546.3019886134398,548.0582490347742,1 46076U 20055BB  26058.62849932  .00002417  00000+0  18105-3 0  9990,2 46076  53.0551 141.7851 0001268  96.1332 263.9802 15.06410258307778
STARLINK-1559,46077,53.028,0.0003677,15.28548063,477.63010429614405,482.6736899510888,1 46077U 20055BC  26058.49411137  .00034459  00000+0  12307-2 0  9996,2 46077  53.0280 121.3641 0003677 359.5108   0.5886 15.28548063308028
